SKYSAT-C10              
1 42988U 17068B   24189.91842493  .00012469  00000+0  41482-3 0  9990
2 42988  97.3695 315.7652 0005770 111.6431 248.5425 15.31279737373768
SKYSAT-C9               
1 42989U 17068C   24189.32196289  .00011220  00000+0  37768-3 0  9997
2 42989  97.3627 313.6340 0010838 209.3126 150.7508 15.30888648373865
SKYSAT-C8               
1 42990U 17068D   24189.91957531  .00011296  00000+0  39877-3 0  9995
2 42990  97.3721 315.2742 0002931 142.7197 217.4247 15.29388803373710
SKYSAT-C7               
1 42991U 17068E   24189.35459571  .00011130  00000+0  39204-3 0  9996
2 42991  97.3719 315.1381 0001709  62.3850 297.7564 15.29467189373652
SKYSAT-C6               
1 42992U 17068F   24189.10571251  .00012103  00000+0  40999-3 0  9994
2 42992  97.3748 315.9343 0005090 163.2116 196.9295 15.30706313373652
CARTOSAT-2F             
1 43111U 18004A   24189.91962298  .00007144  00000+0  34133-3 0  9995
2 43111  97.4298 249.0766 0001219 192.8453 167.2751 15.19324917359648
GAOFEN-1 02             
1 43259U 18031A   24190.18211975  .00001288  00000+0  19152-3 0  9995
2 43259  97.8198 257.0048 0005203 107.5988 252.5791 14.76588454338075
GAOFEN-1 03             
1 43260U 18031B   24189.95705354  .00001372  00000+0  20352-3 0  9997
2 43260  97.8193 256.7060 0004789 162.3558 197.7819 14.76615297338035
GAOFEN-1 04             
1 43262U 18031D   24190.20362883  .00001300  00000+0  19322-3 0  9991
2 43262  97.8201 257.0533 0004800 129.1709 230.9928 14.76616759338067
SENTINEL-3B             
1 43437U 18039A   24189.19466196  .00000197  00000+0  99293-4 0  9990
2 43437  98.6275 255.8306 0001274 115.3917 244.7396 14.26739331322887
GAOFEN-5 01             
1 43461U 18043A   24189.84806242  .00000716  00000+0  16197-3 0  9992
2 43461  98.3565 140.4282 0003045 106.1234 254.0300 14.59196924328182
GAOFEN-6                
1 43484U 18048A   24190.17726907  .00001086  00000+0  16278-3 0  9990
2 43484  97.8632 264.0107 0009966 309.9012  50.1322 14.76567019328769
GAOFEN-11 01            
1 43585U 18063A   24190.20737057  .00009498  00000+0  31779-3 0  9999
2 43585  97.2306 255.5734 0008777  45.0717 315.1236 15.31141128330978
ICESAT-2                
1 43613U 18070A   24190.14977433  .00014534  00000+0  52573-3 0  9998
2 43613  92.0011 100.2918 0007116   9.2692 350.8687 15.28367022324176
HYSIS                   
1 43719U 18096A   24190.16721092  .00001907  00000+0  26683-3 0  9996
2 43719  97.8648 253.6072 0000585 200.7822 159.3366 14.78701151302645
KAZSTSAT                
1 43783U 18099AB  24189.57424261  .00001593  00000+0  14481-3 0  9995
2 43783  97.5261 239.8358 0005723 274.6262  85.4307 14.96572320305038
SAUDISAT 5A             
1 43831U 18102A   24190.16639075  .00004857  00000+0  25402-3 0  9993
2 43831  97.4069 255.2986 0013971 105.4380 254.8398 15.16234212307775
SAUDISAT 5B             
1 43833U 18102C   24190.19555505  .00005260  00000+0  26976-3 0  9999
2 43833  97.4119 257.1812 0014690 108.9609 251.3218 15.16878519307860
GAOFEN-10R              
1 44622U 19066A   24190.15960314  .00001935  00000+0  25178-3 0  9998
2 44622  97.9654 132.0046 0001550 110.0621 250.0759 14.81808958257327
CARTOSAT-3              
1 44804U 19081A   24190.18767246  .00005834  00000+0  27897-3 0  9991
2 44804  97.5312 247.9040 0013751 111.2501 249.0203 15.19303221255776
GAOFEN-12 01            
1 44819U 19082A   24190.19804927  .00000722  00000+0  99569-4 0  9994
2 44819  97.8228 203.8102 0002544 110.7249 249.4237 14.81085302249186
CSG-1                   
1 44873U 19092A   24190.12325396  .00000882  00000+0  11738-3 0  9994
2 44873  97.8871  12.9611 0001465  79.4498 280.6880 14.82154297246440
NUSAT-6 (HYPATIA)       
1 46272U 20061A   24190.20867847  .00089191  00000+0  80938-3 0  9996
2 46272  97.2288 265.1559 0003739 203.1747 156.9346 15.67724398214775
NEMO-HD                 
1 46277U 20061F   24190.17461777  .00007100  00000+0  27384-3 0  9995
2 46277  97.2958 252.3956 0002981  86.1919 273.9661 15.26603146213143
SENTINEL-6              
1 46984U 20086A   24189.29717464 -.00000062  00000+0 -62948-5 0  9994
2 46984  66.0395 169.5014 0007951 270.2064  89.8040 12.80929770169405
GAOFEN-12 02            
1 48079U 21026A   24190.18746259  .00000739  00000+0  10194-3 0  9993
2 48079  97.9505 181.6968 0001116  91.5676 268.5665 14.81089199176852
PLEIADES NEO 3          
1 48268U 21034A   24190.16223898  .00001716  00000+0  22463-3 0  9997
2 48268  97.8931 264.1016 0001598 109.4044 250.7341 14.81677170172668
NUSAT-19 (ROSALIND)     
1 48905U 21059AC  24190.12061376  .00055500  00000+0  78484-3 0  9993
2 48905  97.5923 343.6729 0004135 272.5606  87.5175 15.56350197169098
PLEIADES NEO 4          
1 49070U 21073E   24190.19599468  .00001699  00000+0  22243-3 0  9990
2 49070  97.8931 264.1321 0001481 107.1289 253.0086 14.81673843156382
LANDSAT 9               
1 49260U 21088A   24190.18363210  .00000573  00000+0  13738-3 0  9999
2 49260  98.2311 259.5033 0001332  94.9329 265.2021 14.57091722147748
CSG-2                   
1 51444U 22008A   24190.15699936  .00000601  00000+0  82004-4 0  9998
2 51444  97.8869  12.9894 0001508  89.7255 270.4131 14.82152857131567
