OBJECT_NAME,OBJECT_ID,EPOCH,MEAN_MOTION,ECCENTRICITY,INCLINATION,RA_OF_ASC_NODE,ARG_OF_PERICENTER,MEAN_ANOMALY,EPHEMERIS_TYPE,CLASSIFICATION_TYPE,NORAD_CAT_ID,ELEMENT_SET_NO,REV_AT_EPOCH,BSTAR,MEAN_MOTION_DOT,MEAN_MOTION_DDOT
SKYSAT-C10,2017-068B,2024-07-07T22:02:31.913952,15.31279737,.000577,97.3695,315.7652,111.6431,248.5425,0,U,42988,999,37376,.41482E-3,.12469E-3,0
SKYSAT-C9,2017-068C,2024-07-07T07:43:37.593696,15.30888648,.0010838,97.3627,313.6340,209.3126,150.7508,0,U,42989,999,37386,.37768E-3,.1122E-3,0
SKYSAT-C8,2017-068D,2024-07-07T22:04:11.306784,15.29388803,.0002931,97.3721,315.2742,142.7197,217.4247,0,U,42990,999,37371,.39877E-3,.11296E-3,0
SKYSAT-C7,2017-068E,2024-07-07T08:30:37.069344,15.29467189,.0001709,97.3719,315.1381,62.3850,297.7564,0,U,42991,999,37365,.39204E-3,.1113E-3,0
SKYSAT-C6,2017-068F,2024-07-07T02:32:13.560864,15.30706313,.000509,97.3748,315.9343,163.2116,196.9295,0,U,42992,999,37365,.40999E-3,.12103E-3,0
CARTOSAT-2F,2018-004A,2024-07-07T22:04:15.425472,15.19324917,.0001219,97.4298,249.0766,192.8453,167.2751,0,U,43111,999,35964,.34133E-3,.7144E-4,0
GAOFEN-1 02,2018-031A,2024-07-08T04:22:15.146400,14.76588454,.0005203,97.8198,257.0048,107.5988,252.5791,0,U,43259,999,33807,.19152E-3,.1288E-4,0
GAOFEN-1 03,2018-031B,2024-07-07T22:58:09.425856,14.76615297,.0004789,97.8193,256.7060,162.3558,197.7819,0,U,43260,999,33803,.20352E-3,.1372E-4,0
GAOFEN-1 04,2018-031D,2024-07-08T04:53:13.530912,14.76616759,.00048,97.8201,257.0533,129.1709,230.9928,0,U,43262,999,33806,.19322E-3,.13E-4,0
SENTINEL-3B,2018-039A,2024-07-07T04:40:18.793344,14.26739331,.0001274,98.6275,255.8306,115.3917,244.7396,0,U,43437,999,32288,.99293E-4,.197E-5,0
GAOFEN-5 01,2018-043A,2024-07-07T20:21:12.593088,14.59196924,.0003045,98.3565,140.4282,106.1234,254.0300,0,U,43461,999,32818,.16197E-3,.716E-5,0
GAOFEN-6,2018-048A,2024-07-08T04:15:16.047648,14.76567019,.0009966,97.8632,264.0107,309.9012,50.1322,0,U,43484,999,32876,.16278E-3,.1086E-4,0
GAOFEN-11 01,2018-063A,2024-07-08T04:58:36.817248,15.31141128,.0008777,97.2306,255.5734,45.0717,315.1236,0,U,43585,999,33097,.31779E-3,.9498E-4,0
ICESAT-2,2018-070A,2024-07-08T03:35:40.502112,15.28367022,.0007116,92.0011,100.2918,9.2692,350.8687,0,U,43613,999,32417,.52573E-3,.14534E-3,0
HYSIS,2018-096A,2024-07-08T04:00:47.023488,14.78701151,.0000585,97.8648,253.6072,200.7822,159.3366,0,U,43719,999,30264,.26683E-3,.1907E-4,0
KAZSTSAT,2018-099AB,2024-07-07T13:46:54.561504,14.96572320,.0005723,97.5261,239.8358,274.6262,85.4307,0,U,43783,999,30503,.14481E-3,.1593E-4,0
SAUDISAT 5A,2018-102A,2024-07-08T03:59:36.160800,15.16234212,.0013971,97.4069,255.2986,105.4380,254.8398,0,U,43831,999,30777,.25402E-3,.4857E-4,0
SAUDISAT 5B,2018-102C,2024-07-08T04:41:35.956320,15.16878519,.001469,97.4119,257.1812,108.9609,251.3218,0,U,43833,999,30786,.26976E-3,.526E-4,0
GAOFEN-10R,2019-066A,2024-07-08T03:49:49.711296,14.81808958,.000155,97.9654,132.0046,110.0621,250.0759,0,U,44622,999,25732,.25178E-3,.1935E-4,0
CARTOSAT-3,2019-081A,2024-07-08T04:30:14.900544,15.19303221,.0013751,97.5312,247.9040,111.2501,249.0203,0,U,44804,999,25577,.27897E-3,.5834E-4,0
GAOFEN-12 01,2019-082A,2024-07-08T04:45:11.456928,14.81085302,.0002544,97.8228,203.8102,110.7249,249.4237,0,U,44819,999,24918,.99569E-4,.722E-5,0
CSG-1,2019-092A,2024-07-08T02:57:29.142144,14.82154297,.0001465,97.8871,12.9611,79.4498,280.6880,0,U,44873,999,24644,.11738E-3,.882E-5,0
NUSAT-6 (HYPATIA),2020-061A,2024-07-08T05:00:29.819808,15.67724398,.0003739,97.2288,265.1559,203.1747,156.9346,0,U,46272,999,21477,.80938E-3,.89191E-3,0
NEMO-HD,2020-061F,2024-07-08T04:11:26.975328,15.26603146,.0002981,97.2958,252.3956,86.1919,273.9661,0,U,46277,999,21314,.27384E-3,.71E-4,0
SENTINEL-6,2020-086A,2024-07-07T07:07:55.888896,12.80929770,.0007951,66.0395,169.5014,270.2064,89.8040,0,U,46984,999,16940,-.62948E-5,-.62E-6,0
GAOFEN-12 02,2021-026A,2024-07-08T04:29:56.767776,14.81089199,.0001116,97.9505,181.6968,91.5676,268.5665,0,U,48079,999,17685,.10194E-3,.739E-5,0
PLEIADES NEO 3,2021-034A,2024-07-08T03:53:37.447872,14.81677170,.0001598,97.8931,264.1016,109.4044,250.7341,0,U,48268,999,17266,.22463E-3,.1716E-4,0
NUSAT-19 (ROSALIND),2021-059AC,2024-07-08T02:53:41.028864,15.56350197,.0004135,97.5923,343.6729,272.5606,87.5175,0,U,48905,999,16909,.78484E-3,.555E-3,0
PLEIADES NEO 4,2021-073E,2024-07-08T04:42:13.940352,14.81673843,.0001481,97.8931,264.1321,107.1289,253.0086,0,U,49070,999,15638,.22243E-3,.1699E-4,0
LANDSAT 9,2021-088A,2024-07-08T04:24:25.813440,14.57091722,.0001332,98.2311,259.5033,94.9329,265.2021,0,U,49260,999,14774,.13738E-3,.573E-5,0
CSG-2,2022-008A,2024-07-08T03:46:04.744704,14.82152857,.0001508,97.8869,12.9894,89.7255,270.4131,0,U,51444,999,13156,.82004E-4,.601E-5,0
